[{"OBJECT_NAME":"ONEWEB-0457","OBJECT_ID":"2022-012AB","EPOCH":"2025-08-28T15:24:11.912256","MEAN_MOTION":13.10376367,"ECCENTRICITY":0.00018638,"INCLINATION":87.8761,"RA_OF_ASC_NODE":94.626,"ARG_OF_PERICENTER":93.5377,"MEAN_ANOMALY":266.5964,"EPHEMERIS_TYPE":0,"CLASSIFICATION_TYPE":"U","NORAD_CAT_ID":51647,"ELEMENT_SET_NO":999,"REV_AT_EPOCH":17103,"BSTAR":-6.886622e-5,"MEAN_MOTION_DOT":-1.1e-7,"MEAN_MOTION_DDOT":0},{"OBJECT_NAME":"ONEWEB-0458","OBJECT_ID":"2022-012AC","EPOCH":"2025-08-28T21:25:07.957344","MEAN_MOTION":13.10373184,"ECCENTRICITY":0.00018676,"INCLINATION":87.875,"RA_OF_ASC_NODE":94.5478,"ARG_OF_PERICENTER":80.6808,"MEAN_ANOMALY":279.4531,"EPHEMERIS_TYPE":0,"CLASSIFICATION_TYPE":"U","NORAD_CAT_ID":51648,"ELEMENT_SET_NO":999,"REV_AT_EPOCH":17102,"BSTAR":0.0018600511,"MEAN_MOTION_DOT":6.62e-6,"MEAN_MOTION_DDOT":0},{"OBJECT_NAME":"ONEWEB-0461","OBJECT_ID":"2022-012AD","EPOCH":"2025-08-28T20:59:47.105664","MEAN_MOTION":13.17648912,"ECCENTRICITY":0.00017129,"INCLINATION":87.9035,"RA_OF_ASC_NODE":63.9994,"ARG_OF_PERICENTER":94.5695,"MEAN_ANOMALY":265.5632,"EPHEMERIS_TYPE":0,"CLASSIFICATION_TYPE":"U","NORAD_CAT_ID":51649,"ELEMENT_SET_NO":999,"REV_AT_EPOCH":17539,"BSTAR":0.00035247295,"MEAN_MOTION_DOT":1.5e-6,"MEAN_MOTION_DDOT":0},{"OBJECT_NAME":"ONEWEB-0463","OBJECT_ID":"2022-012AE","EPOCH":"2025-08-28T22:22:22.880064","MEAN_MOTION":13.17649512,"ECCENTRICITY":0.0001825,"INCLINATION":87.902,"RA_OF_ASC_NODE":64.0498,"ARG_OF_PERICENTER":88.703,"MEAN_ANOMALY":271.431,"EPHEMERIS_TYPE":0,"CLASSIFICATION_TYPE":"U","NORAD_CAT_ID":51650,"ELEMENT_SET_NO":999,"REV_AT_EPOCH":17518,"BSTAR":7.837282e-6,"MEAN_MOTION_DOT":1.6e-7,"MEAN_MOTION_DDOT":0},{"OBJECT_NAME":"ONEWEB-0464","OBJECT_ID":"2022-012AF","EPOCH":"2025-08-28T14:00:32.207904","MEAN_MOTION":13.10380502,"ECCENTRICITY":0.00016076,"INCLINATION":87.8759,"RA_OF_ASC_NODE":94.6473,"ARG_OF_PERICENTER":71.6574,"MEAN_ANOMALY":288.4728,"EPHEMERIS_TYPE":0,"CLASSIFICATION_TYPE":"U","NORAD_CAT_ID":51651,"ELEMENT_SET_NO":999,"REV_AT_EPOCH":17100,"BSTAR":0.0019085706,"MEAN_MOTION_DOT":6.79e-6,"MEAN_MOTION_DDOT":0},{"OBJECT_NAME":"ONEWEB-0468","OBJECT_ID":"2022-012AG","EPOCH":"2025-08-28T14:10:05.188512","MEAN_MOTION":13.10372758,"ECCENTRICITY":0.00016875,"INCLINATION":87.8757,"RA_OF_ASC_NODE":94.6378,"ARG_OF_PERICENTER":80.2728,"MEAN_ANOMALY":279.8589,"EPHEMERIS_TYPE":0,"CLASSIFICATION_TYPE":"U","NORAD_CAT_ID":51652,"ELEMENT_SET_NO":999,"REV_AT_EPOCH":17098,"BSTAR":0.0017353174,"MEAN_MOTION_DOT":6.18e-6,"MEAN_MOTION_DDOT":0},{"OBJECT_NAME":"ONEWEB-0473","OBJECT_ID":"2022-012AH","EPOCH":"2025-08-28T13:48:33.372864","MEAN_MOTION":13.10376647,"ECCENTRICITY":0.00017991,"INCLINATION":87.8761,"RA_OF_ASC_NODE":94.6441,"ARG_OF_PERICENTER":79.2953,"MEAN_ANOMALY":280.8377,"EPHEMERIS_TYPE":0,"CLASSIFICATION_TYPE":"U","NORAD_CAT_ID":51653,"ELEMENT_SET_NO":999,"REV_AT_EPOCH":17098,"BSTAR":0.0010389754,"MEAN_MOTION_DOT":3.75e-6,"MEAN_MOTION_DDOT":0},{"OBJECT_NAME":"ONEWEB-0474","OBJECT_ID":"2022-012AJ","EPOCH":"2025-08-28T15:26:34.127520","MEAN_MOTION":13.10377338,"ECCENTRICITY":0.0001738,"INCLINATION":87.8766,"RA_OF_ASC_NODE":94.591,"ARG_OF_PERICENTER":73.1818,"MEAN_ANOMALY":286.95,"EPHEMERIS_TYPE":0,"CLASSIFICATION_TYPE":"U","NORAD_CAT_ID":51654,"ELEMENT_SET_NO":999,"REV_AT_EPOCH":17098,"BSTAR":7.123113e-5,"MEAN_MOTION_DOT":3.8e-7,"MEAN_MOTION_DDOT":0},{"OBJECT_NAME":"ONEWEB-0475","OBJECT_ID":"2022-012AK","EPOCH":"2025-08-28T20:50:03.350976","MEAN_MOTION":13.17648615,"ECCENTRICITY":0.00021994,"INCLINATION":87.9026,"RA_OF_ASC_NODE":64.0447,"ARG_OF_PERICENTER":69.8036,"MEAN_ANOMALY":290.3332,"EPHEMERIS_TYPE":0,"CLASSIFICATION_TYPE":"U","NORAD_CAT_ID":51655,"ELEMENT_SET_NO":999,"REV_AT_EPOCH":17519,"BSTAR":3.0209607e-5,"MEAN_MOTION_DOT":2.5e-7,"MEAN_MOTION_DDOT":0},{"OBJECT_NAME":"ONEWEB-0490","OBJECT_ID":"2022-138A","EPOCH":"2025-08-28T20:39:36.885312","MEAN_MOTION":13.19726165,"ECCENTRICITY":0.00016384,"INCLINATION":87.9275,"RA_OF_ASC_NODE":3.0679,"ARG_OF_PERICENTER":92.7977,"MEAN_ANOMALY":267.3343,"EPHEMERIS_TYPE":0,"CLASSIFICATION_TYPE":"U","NORAD_CAT_ID":54113,"ELEMENT_SET_NO":999,"REV_AT_EPOCH":13827,"BSTAR":0.00012198462,"MEAN_MOTION_DOT":6.2e-7,"MEAN_MOTION_DDOT":0},{"OBJECT_NAME":"ONEWEB-0492","OBJECT_ID":"2022-138B","EPOCH":"2025-08-28T21:15:59.405472","MEAN_MOTION":13.19723766,"ECCENTRICITY":0.00015987,"INCLINATION":87.9273,"RA_OF_ASC_NODE":3.0855,"ARG_OF_PERICENTER":99.897,"MEAN_ANOMALY":260.2344,"EPHEMERIS_TYPE":0,"CLASSIFICATION_TYPE":"U","NORAD_CAT_ID":54114,"ELEMENT_SET_NO":999,"REV_AT_EPOCH":13828,"BSTAR":2.4060697e-5,"MEAN_MOTION_DOT":2.3e-7,"MEAN_MOTION_DDOT":0},{"OBJECT_NAME":"ONEWEB-0495","OBJECT_ID":"2022-138C","EPOCH":"2025-08-28T20:44:10.213440","MEAN_MOTION":13.19725475,"ECCENTRICITY":0.0001486,"INCLINATION":87.9262,"RA_OF_ASC_NODE":3.0999,"ARG_OF_PERICENTER":74.6097,"MEAN_ANOMALY":285.52,"EPHEMERIS_TYPE":0,"CLASSIFICATION_TYPE":"U","NORAD_CAT_ID":54115,"ELEMENT_SET_NO":999,"REV_AT_EPOCH":13826,"BSTAR":-6.235773e-5,"MEAN_MOTION_DOT":-1.2e-7,"MEAN_MOTION_DDOT":0},{"OBJECT_NAME":"ONEWEB-0497","OBJECT_ID":"2022-138D","EPOCH":"2025-08-28T21:02:22.342272","MEAN_MOTION":13.19725532,"ECCENTRICITY":0.00017514,"INCLINATION":87.9277,"RA_OF_ASC_NODE":3.0718,"ARG_OF_PERICENTER":96.1367,"MEAN_ANOMALY":263.9965,"EPHEMERIS_TYPE":0,"CLASSIFICATION_TYPE":"U","NORAD_CAT_ID":54116,"ELEMENT_SET_NO":999,"REV_AT_EPOCH":13825,"BSTAR":-0.00011691625,"MEAN_MOTION_DOT":-3.4e-7,"MEAN_MOTION_DDOT":0},{"OBJECT_NAME":"ONEWEB-0499","OBJECT_ID":"2022-138E","EPOCH":"2025-08-28T20:37:19.530048","MEAN_MOTION":13.19727646,"ECCENTRICITY":0.00020083,"INCLINATION":87.9275,"RA_OF_ASC_NODE":3.0934,"ARG_OF_PERICENTER":89.5404,"MEAN_ANOMALY":270.5959,"EPHEMERIS_TYPE":0,"CLASSIFICATION_TYPE":"U","NORAD_CAT_ID":54117,"ELEMENT_SET_NO":999,"REV_AT_EPOCH":13826,"BSTAR":-7.453347e-6,"MEAN_MOTION_DOT":1.0e-7,"MEAN_MOTION_DDOT":0},{"OBJECT_NAME":"ONEWEB-0500","OBJECT_ID":"2022-138F","EPOCH":"2025-08-28T20:41:54.381408","MEAN_MOTION":13.19723832,"ECCENTRICITY":0.000175,"INCLINATION":87.9279,"RA_OF_ASC_NODE":3.0783,"ARG_OF_PERICENTER":100.0848,"MEAN_ANOMALY":260.0482,"EPHEMERIS_TYPE":0,"CLASSIFICATION_TYPE":"U","NORAD_CAT_ID":54118,"ELEMENT_SET_NO":999,"REV_AT_EPOCH":13827,"BSTAR":0.00046559339,"MEAN_MOTION_DOT":1.99e-6,"MEAN_MOTION_DDOT":0},{"OBJECT_NAME":"ONEWEB-0501","OBJECT_ID":"2022-138G","EPOCH":"2025-08-28T21:25:06.514464","MEAN_MOTION":13.19727138,"ECCENTRICITY":0.00016585,"INCLINATION":87.9279,"RA_OF_ASC_NODE":3.0644,"ARG_OF_PERICENTER":84.5245,"MEAN_ANOMALY":275.6077,"EPHEMERIS_TYPE":0,"CLASSIFICATION_TYPE":"U","NORAD_CAT_ID":54119,"ELEMENT_SET_NO":999,"REV_AT_EPOCH":13825,"BSTAR":-9.65134e-6,"MEAN_MOTION_DOT":9.0e-8,"MEAN_MOTION_DDOT":0},{"OBJECT_NAME":"ONEWEB-0502","OBJECT_ID":"2022-138H","EPOCH":"2025-08-28T21:04:37.367328","MEAN_MOTION":13.19727521,"ECCENTRICITY":0.00018174,"INCLINATION":87.9275,"RA_OF_ASC_NODE":3.0508,"ARG_OF_PERICENTER":89.015,"MEAN_ANOMALY":271.1191,"EPHEMERIS_TYPE":0,"CLASSIFICATION_TYPE":"U","NORAD_CAT_ID":54120,"ELEMENT_SET_NO":999,"REV_AT_EPOCH":13827,"BSTAR":-0.00010807125,"MEAN_MOTION_DOT":-3.0e-7,"MEAN_MOTION_DDOT":0},{"OBJECT_NAME":"ONEWEB-0503","OBJECT_ID":"2022-138J","EPOCH":"2025-08-28T20:48:43.183008","MEAN_MOTION":13.19724386,"ECCENTRICITY":0.00020781,"INCLINATION":87.9275,"RA_OF_ASC_NODE":3.0575,"ARG_OF_PERICENTER":95.9286,"MEAN_ANOMALY":264.2084,"EPHEMERIS_TYPE":0,"CLASSIFICATION_TYPE":"U","NORAD_CAT_ID":54121,"ELEMENT_SET_NO":999,"REV_AT_EPOCH":13826,"BSTAR":-3.3972655e-5,"MEAN_MOTION_DOT":-1.0e-8,"MEAN_MOTION_DDOT":0},{"OBJECT_NAME":"ONEWEB-0504","OBJECT_ID":"2022-138K","EPOCH":"2025-08-28T20:30:29.913696","MEAN_MOTION":13.19726922,"ECCENTRICITY":0.00018659,"INCLINATION":87.9279,"RA_OF_ASC_NODE":3.0762,"ARG_OF_PERICENTER":88.2413,"MEAN_ANOMALY":271.8933,"EPHEMERIS_TYPE":0,"CLASSIFICATION_TYPE":"U","NORAD_CAT_ID":54122,"ELEMENT_SET_NO":999,"REV_AT_EPOCH":13827,"BSTAR":4.2905015e-5,"MEAN_MOTION_DOT":3.0e-7,"MEAN_MOTION_DDOT":0},{"OBJECT_NAME":"ONEWEB-0505","OBJECT_ID":"2022-138L","EPOCH":"2025-08-28T20:25:58.862208","MEAN_MOTION":13.19725144,"ECCENTRICITY":0.00017422,"INCLINATION":87.9276,"RA_OF_ASC_NODE":3.0656,"ARG_OF_PERICENTER":79.4796,"MEAN_ANOMALY":280.6533,"EPHEMERIS_TYPE":0,"CLASSIFICATION_TYPE":"U","NORAD_CAT_ID":54123,"ELEMENT_SET_NO":999,"REV_AT_EPOCH":13825,"BSTAR":-8.4374514e-5,"MEAN_MOTION_DOT":-2.1e-7,"MEAN_MOTION_DDOT":0},{"OBJECT_NAME":"ONEWEB-0506","OBJECT_ID":"2022-138M","EPOCH":"2025-08-28T21:38:44.058048","MEAN_MOTION":13.19725222,"ECCENTRICITY":0.00017183,"INCLINATION":87.9271,"RA_OF_ASC_NODE":3.053,"ARG_OF_PERICENTER":92.0728,"MEAN_ANOMALY":268.0602,"EPHEMERIS_TYPE":0,"CLASSIFICATION_TYPE":"U","NORAD_CAT_ID":54124,"ELEMENT_SET_NO":999,"REV_AT_EPOCH":13825,"BSTAR":-0.00030826699,"MEAN_MOTION_DOT":-1.1e-6,"MEAN_MOTION_DDOT":0},{"OBJECT_NAME":"ONEWEB-0507","OBJECT_ID":"2022-138N","EPOCH":"2025-08-28T20:19:07.834080","MEAN_MOTION":13.19726254,"ECCENTRICITY":0.00016732,"INCLINATION":87.9267,"RA_OF_ASC_NODE":3.1153,"ARG_OF_PERICENTER":91.9183,"MEAN_ANOMALY":268.2141,"EPHEMERIS_TYPE":0,"CLASSIFICATION_TYPE":"U","NORAD_CAT_ID":54125,"ELEMENT_SET_NO":999,"REV_AT_EPOCH":13829,"BSTAR":-1.8608502e-5,"MEAN_MOTION_DOT":5.0e-8,"MEAN_MOTION_DDOT":0},{"OBJECT_NAME":"ONEWEB-0508","OBJECT_ID":"2022-138P","EPOCH":"2025-08-28T20:14:34.408320","MEAN_MOTION":13.19727411,"ECCENTRICITY":0.00015236,"INCLINATION":87.9274,"RA_OF_ASC_NODE":3.1001,"ARG_OF_PERICENTER":87.2275,"MEAN_ANOMALY":272.9033,"EPHEMERIS_TYPE":0,"CLASSIFICATION_TYPE":"U","NORAD_CAT_ID":54126,"ELEMENT_SET_NO":999,"REV_AT_EPOCH":13827,"BSTAR":4.1818842e-5,"MEAN_MOTION_DOT":3.0e-7,"MEAN_MOTION_DDOT":0}]
